GLOBALSTAR M068         
1 32266U 07048D   25193.24459465 -.00000083  00000+0  11486-3 0  9991
2 32266  51.9863 225.8746 0001171 186.1358 250.5044 12.62826387821016
GLOBALSTAR M079         
1 37188U 10054A   25193.14365522 -.00000089  00000+0  83107-4 0  9995
2 37188  52.0046  63.8145 0000864  48.4491 121.2580 12.62265438680283
GLOBALSTAR M074         
1 37189U 10054B   25193.09009817 -.00000086  00000+0  99546-4 0  9993
2 37189  52.0027  63.2984 0000930  68.9313  95.5966 12.62266545680272
GLOBALSTAR M076         
1 37190U 10054C   25192.92472021 -.00000088  00000+0  89032-4 0  9998
2 37190  52.0038  63.9733 0001024  58.4936 315.1143 12.62263463679907
GLOBALSTAR M077         
1 37191U 10054D   25192.94107427 -.00000103  00000+0  21190-5 0  9996
2 37191  52.0088  20.7869 0000888  84.1157  64.2523 12.62268841680273
GLOBALSTAR M075         
1 37192U 10054E   25193.20674281 -.00000088  00000+0  87318-4 0  9999
2 37192  51.9944 105.3581 0000578  49.8700 105.9988 12.62265994679533
GLOBALSTAR M073         
1 37193U 10054F   25192.78083635 -.00000098  00000+0  33234-4 0  9998
2 37193  52.0077  20.4920 0000942  76.4202 303.4040 12.62272481680945
GLOBALSTAR M083         
1 37739U 11033A   25192.74170527 -.00000094  00000+0  52391-4 0  9996
2 37739  51.9879 329.3115 0000590 109.6830  30.6860 12.62259868649950
GLOBALSTAR M088         
1 37740U 11033B   25192.88032807 -.00000075  00000+0  15825-3 0  9990
2 37740  52.0194 234.4910 0000323 162.8292   8.7019 12.62266747645514
GLOBALSTAR M091         
1 37741U 11033C   25193.25467785 -.00000117  00000+0 -71659-4 0  9996
2 37741  51.9971 196.8170 0000218 270.4521 103.6074 12.62269288646610
GLOBALSTAR M085         
1 37742U 11033D   25192.93018029 -.00000117  00000+0 -72930-4 0  9997
2 37742  51.9850 148.8193 0000327 349.9744  49.3935 12.62269689646829
GLOBALSTAR M081         
1 37743U 11033E   25193.20889221 -.00000118  00000+0 -78322-4 0  9991
2 37743  51.9941 150.7754 0000473   9.6334  95.2874 12.62267036647381
GLOBALSTAR M089         
1 37744U 11033F   25193.17830757 -.00000095  00000+0  48574-4 0  9997
2 37744  51.9929 105.0904 0000820  63.1955  83.8865 12.62265242648097
GLOBALSTAR M084         
1 38040U 11080A   25192.80226222 -.00000098  00000+0  30573-4 0  9997
2 38040  52.0031 333.5382 0001093  98.9603  77.6631 12.62267003625779
GLOBALSTAR M080         
1 38041U 11080B   25192.85023279 -.00000101  00000+0  14262-4 0  9992
2 38041  52.0080 334.9928 0000716 140.3921  23.6713 12.62263849625902
GLOBALSTAR M082         
1 38042U 11080C   25193.22912999 -.00000076  00000+0  15558-3 0  9990
2 38042  52.0086 289.3037 0000537 166.1075 211.4374 12.62267117626835
GLOBALSTAR M092         
1 38043U 11080D   25192.91361774 -.00000091  00000+0  73731-4 0  9990
2 38043  52.0100  20.6402 0000865  87.0703  55.8003 12.62264692625077
GLOBALSTAR M090         
1 38044U 11080E   25192.97225517 -.00000073  00000+0  17309-3 0  9999
2 38044  52.0132 283.9291 0000395 126.8867  44.0676 12.62260758626744
GLOBALSTAR M086         
1 38045U 11080F   25193.20126646 -.00000074  00000+0  16428-3 0  9992
2 38045  51.9904 283.7142 0001081  49.1860 323.6722 12.62272391626829
GLOBALSTAR M097         
1 39072U 13005A   25193.22508738 -.00000116  00000+0 -70419-4 0  9999
2 39072  52.0019 198.2126 0000145   4.9359 355.1509 12.62265610574059
GLOBALSTAR M093         
1 39073U 13005B   25193.19874130 -.00000116  00000+0 -66533-4 0  9990
2 39073  51.9783 191.5557 0000202 340.1643  19.9215 12.62266022574041
GLOBALSTAR M094         
1 39074U 13005C   25193.19887701 -.00000098  00000+0  31838-4 0  9997
2 39074  51.9954 105.9631 0000676  24.3202 335.7696 12.62262776575552
GLOBALSTAR M096         
1 39075U 13005D   25192.89526856 -.00000123  00000+0 -10518-3 0  9996
2 39075  52.0056 155.4205 0000400 347.1816  12.9041 12.62265598574414
GLOBALSTAR M078         
1 39076U 13005E   25193.18566238 -.00000087  00000+0  93309-4 0  9996
2 39076  51.9854 239.0155 0000839 213.9997 146.0816 12.62259597573283
GLOBALSTAR M095         
1 39077U 13005F   25192.81590569 -.00000078  00000+0  14271-3 0  9990
2 39077  51.9780 237.3241 0000397 236.0231 124.0598 12.62268221572887
GLOBALSTAR M087         
1 52888U 22064A   25192.91535614 -.00000098  00000+0  34499-4 0  9998
2 52888  52.0011  18.4417 0001097  99.7854 260.3137 12.63725725148168
